start=new Date('2022-09-17T00:00:00.000Z').valueOf();
sats=[{"ELEMENT_SET_NO":"999","RCS_SIZE":"LARGE","REV_AT_EPOCH":"14961","MEAN_MOTION_DDOT":"0.0000000000000","MEAN_ANOMALY":"274.5616","PERIOD":"95.593","NORAD_CAT_ID":"44932","OBJECT_ID":"2020-001U","RA_OF_ASC_NODE":"289.3149","TIME_SYSTEM":"UTC","PERIAPSIS":"546.496","TLE_LINE1":"1 44932U 20001U   22259.36810792 -.00000397  00000-0 -78036-5 0  9991","MEAN_ELEMENT_THEORY":"SGP4","ARG_OF_PERICENTER":"85.5501","ECCENTRICITY":"0.00011210","SEMIMAJOR_AXIS":"6925.408","DECAY_DATE":null,"OBJECT_TYPE":"PAYLOAD","GP_ID":"212715741","REF_FRAME":"TEME","LAUNCH_DATE":"2020-01-07","BSTAR":"-0.00000780360000","EPHEMERIS_TYPE":"0","INCLINATION":"53.0548","COUNTRY_CODE":"US","FILE":"3575604","MEAN_MOTION":"15.06380737","EPOCH":"2022-09-16T08:50:04.524288","APOAPSIS":"548.049","MEAN_MOTION_DOT":"-0.00000397","CLASSIFICATION_TYPE":"U","CENTER_NAME":"EARTH","TLE_LINE2":"2 44932  53.0548 289.3149 0001121  85.5501 274.5616 15.06380737149616","SITE":"AFETR","OBJECT_NAME":"STARLINK-1130"},{"MEAN_ELEMENT_THEORY":"SGP4","ARG_OF_PERICENTER":"66.8607","ECCENTRICITY":"0.00014180","OBJECT_TYPE":"PAYLOAD","DECAY_DATE":null,"SEMIMAJOR_AXIS":"6925.345","TIME_SYSTEM":"UTC","RA_OF_ASC_NODE":"287.4244","PERIAPSIS":"546.228","TLE_LINE1":"1 44933U 20001V   22259.79196253  .00001251  00000-0  10286-3 0  9997","MEAN_MOTION_DDOT":"0.0000000000000","REV_AT_EPOCH":"14973","MEAN_ANOMALY":"293.2531","PERIOD":"95.592","NORAD_CAT_ID":"44933","OBJECT_ID":"2020-001V","ELEMENT_SET_NO":"999","RCS_SIZE":"LARGE","CLASSIFICATION_TYPE":"U","TLE_LINE2":"2 44933  53.0536 287.4244 0001418  66.8607 293.2531 15.06401054149730","SITE":"AFETR","CENTER_NAME":"EARTH","OBJECT_NAME":"STARLINK-1144","APOAPSIS":"548.192","MEAN_MOTION_DOT":"0.00001251","COUNTRY_CODE":"US","FILE":"3575787","MEAN_MOTION":"15.06401054","EPOCH":"2022-09-16T19:00:25.562592","GP_ID":"212744794","LAUNCH_DATE":"2020-01-07","REF_FRAME":"TEME","BSTAR":"0.00010286000000","EPHEMERIS_TYPE":"0","INCLINATION":"53.0536"},{"MEAN_MOTION_DOT":"0.00001913","APOAPSIS":"548.196","TLE_LINE2":"2 44934  53.0528 267.6640 0001417  82.0863 278.0287 15.06399508148711","SITE":"AFETR","OBJECT_NAME":"STARLINK-1071","CENTER_NAME":"EARTH","CLASSIFICATION_TYPE":"U","INCLINATION":"53.0528","BSTAR":"0.00014728000000","EPHEMERIS_TYPE":"0","REF_FRAME":"TEME","LAUNCH_DATE":"2020-01-07","GP_ID":"212745044","EPOCH":"2022-09-16T17:43:28.858080","FILE":"3575787","MEAN_MOTION":"15.06399508","COUNTRY_CODE":"US","TLE_LINE1":"1 44934U 20001W   22259.73852845  .00001913  00000-0  14728-3 0  9998","PERIAPSIS":"546.234","TIME_SYSTEM":"UTC","RA_OF_ASC_NODE":"267.6640","DECAY_DATE":null,"SEMIMAJOR_AXIS":"6925.350","OBJECT_TYPE":"PAYLOAD","ARG_OF_PERICENTER":"82.0863","ECCENTRICITY":"0.00014170","MEAN_ELEMENT_THEORY":"SGP4","RCS_SIZE":"LARGE","ELEMENT_SET_NO":"999","OBJECT_ID":"2020-001W","PERIOD":"95.592","MEAN_ANOMALY":"278.0287","NORAD_CAT_ID":"44934","MEAN_MOTION_DDOT":"0.0000000000000","REV_AT_EPOCH":"14871"},{"ARG_OF_PERICENTER":"79.0433","ECCENTRICITY":"0.00014190","OBJECT_TYPE":"PAYLOAD","DECAY_DATE":null,"SEMIMAJOR_AXIS":"6925.372","MEAN_ELEMENT_THEORY":"SGP4","TLE_LINE1":"1 44937U 20001Z   22259.51736907 -.00000613  00000-0 -22247-4 0  9991","RA_OF_ASC_NODE":"268.6537","TIME_SYSTEM":"UTC","PERIAPSIS":"546.254","MEAN_ANOMALY":"281.0716","PERIOD":"95.593","NORAD_CAT_ID":"44937","OBJECT_ID":"2020-001Z","MEAN_MOTION_DDOT":"0.0000000000000","REV_AT_EPOCH":"14868","ELEMENT_SET_NO":"999","RCS_SIZE":"LARGE","CENTER_NAME":"EARTH","TLE_LINE2":"2 44937  53.0540 268.6537 0001419  79.0433 281.0716 15.06392397148681","SITE":"AFETR","OBJECT_NAME":"STARLINK-1079","CLASSIFICATION_TYPE":"U","MEAN_MOTION_DOT":"-0.00000613","APOAPSIS":"548.220","FILE":"3575604","MEAN_MOTION":"15.06392397","EPOCH":"2022-09-16T12:25:00.687648","COUNTRY_CODE":"US","BSTAR":"-0.00002224700000","EPHEMERIS_TYPE":"0","INCLINATION":"53.0540","GP_ID":"212715491","REF_FRAME":"TEME","LAUNCH_DATE":"2020-01-07"},{"TLE_LINE2":"2 44938  53.0532 267.3123 0001503  76.2436 283.8720 15.06395428148724","OBJECT_NAME":"STARLINK-1082","SITE":"AFETR","CENTER_NAME":"EARTH","CLASSIFICATION_TYPE":"U","MEAN_MOTION_DOT":"0.00002172","APOAPSIS":"548.268","EPOCH":"2022-09-16T19:34:55.808544","MEAN_MOTION":"15.06395428","FILE":"3575787","COUNTRY_CODE":"US","INCLINATION":"53.0532","EPHEMERIS_TYPE":"0","BSTAR":"0.00016469000000","LAUNCH_DATE":"2020-01-07","REF_FRAME":"TEME","GP_ID":"212746544","OBJECT_TYPE":"PAYLOAD","DECAY_DATE":null,"SEMIMAJOR_AXIS":"6925.363","ARG_OF_PERICENTER":"76.2436","ECCENTRICITY":"0.00015030","MEAN_ELEMENT_THEORY":"SGP4","TLE_LINE1":"1 44938U 20001AA  22259.81592371  .00002172  00000-0  16469-3 0  9998","PERIAPSIS":"546.187","RA_OF_ASC_NODE":"267.3123","TIME_SYSTEM":"UTC","OBJECT_ID":"2020-001AA","NORAD_CAT_ID":"44938","PERIOD":"95.592","MEAN_ANOMALY":"283.8720","MEAN_MOTION_DDOT":"0.0000000000000","REV_AT_EPOCH":"14872","RCS_SIZE":"LARGE","ELEMENT_SET_NO":"999"},{"EPHEMERIS_TYPE":"0","BSTAR":"0.00015142000000","INCLINATION":"53.0547","GP_ID":"212745293","LAUNCH_DATE":"2020-01-07","REF_FRAME":"TEME","MEAN_MOTION":"15.06395746","FILE":"3575787","EPOCH":"2022-09-16T18:10:01.392384","COUNTRY_CODE":"US","MEAN_MOTION_DOT":"0.00001974","APOAPSIS":"548.002","TLE_LINE2":"2 44939  53.0547 267.5702 0001120  78.2401 281.8714 15.06395746148718","OBJECT_NAME":"STARLINK-1083","SITE":"AFETR","CENTER_NAME":"EARTH","CLASSIFICATION_TYPE":"U","ELEMENT_SET_NO":"999","RCS_SIZE":"LARGE","NORAD_CAT_ID":"44939","MEAN_ANOMALY":"281.8714","PERIOD":"95.592","OBJECT_ID":"2020-001AB","MEAN_MOTION_DDOT":"0.0000000000000","REV_AT_EPOCH":"14871","TLE_LINE1":"1 44939U 20001AB  22259.75696056  .00001974  00000-0  15142-3 0  9993","RA_OF_ASC_NODE":"267.5702","TIME_SYSTEM":"UTC","PERIAPSIS":"546.451","ARG_OF_PERICENTER":"78.2401","ECCENTRICITY":"0.00011200","DECAY_DATE":null,"OBJECT_TYPE":"PAYLOAD","SEMIMAJOR_AXIS":"6925.362","MEAN_ELEMENT_THEORY":"SGP4"},{"MEAN_ELEMENT_THEORY":"SGP4","DECAY_DATE":null,"SEMIMAJOR_AXIS":"6925.363","OBJECT_TYPE":"PAYLOAD","ARG_OF_PERICENTER":"75.7222","ECCENTRICITY":"0.00015880","PERIAPSIS":"546.128","RA_OF_ASC_NODE":"268.7180","TIME_SYSTEM":"UTC","TLE_LINE1":"1 44940U 20001AC  22259.50262547  .00000214  00000-0  33277-4 0  9998","REV_AT_EPOCH":"14867","MEAN_MOTION_DDOT":"0.0000000000000","OBJECT_ID":"2020-001AC","NORAD_CAT_ID":"44940","PERIOD":"95.592","MEAN_ANOMALY":"284.3943","RCS_SIZE":"LARGE","ELEMENT_SET_NO":"999","CLASSIFICATION_TYPE":"U","OBJECT_NAME":"STARLINK-1091","TLE_LINE2":"2 44940  53.0536 268.7180 0001588  75.7222 284.3943 15.06395304148679","SITE":"AFETR","CENTER_NAME":"EARTH","APOAPSIS":"548.328","MEAN_MOTION_DOT":"0.00000214","COUNTRY_CODE":"US","EPOCH":"2022-09-16T12:03:46.840608","MEAN_MOTION":"15.06395304","FILE":"3575604","LAUNCH_DATE":"2020-01-07","REF_FRAME":"TEME","GP_ID":"212716231","INCLINATION":"53.0536","EPHEMERIS_TYPE":"0","BSTAR":"0.00003327700000"},{"TIME_SYSTEM":"UTC","RA_OF_ASC_NODE":"267.7281","PERIAPSIS":"546.300","TLE_LINE1":"1 44941U 20001AD  22259.72377579  .00001700  00000-0  13297-3 0  9995","MEAN_ELEMENT_THEORY":"SGP4","ARG_OF_PERICENTER":"74.4699","ECCENTRICITY":"0.00013230","OBJECT_TYPE":"PAYLOAD","DECAY_DATE":null,"SEMIMAJOR_AXIS":"6925.351","ELEMENT_SET_NO":"999","RCS_SIZE":"LARGE","REV_AT_EPOCH":"14871","MEAN_MOTION_DDOT":"0.0000000000000","PERIOD":"95.592","MEAN_ANOMALY":"285.6436","NORAD_CAT_ID":"44941","OBJECT_ID":"2020-001AD","APOAPSIS":"548.132","MEAN_MOTION_DOT":"0.00001700","CLASSIFICATION_TYPE":"U","TLE_LINE2":"2 44941  53.0535 267.7281 0001323  74.4699 285.6436 15.06399241148711","OBJECT_NAME":"STARLINK-1094","SITE":"AFETR","CENTER_NAME":"EARTH","GP_ID":"212745795","LAUNCH_DATE":"2020-01-07","REF_FRAME":"TEME","BSTAR":"0.00013297000000","EPHEMERIS_TYPE":"0","INCLINATION":"53.0535","COUNTRY_CODE":"US","FILE":"3575787","MEAN_MOTION":"15.06399241","EPOCH":"2022-09-16T17:22:14.228256"},{"OBJECT_ID":"2020-001AE","MEAN_ANOMALY":"283.1432","PERIOD":"95.400","NORAD_CAT_ID":"44942","REV_AT_EPOCH":"14867","MEAN_MOTION_DDOT":"0.0000000000000","RCS_SIZE":"LARGE","ELEMENT_SET_NO":"999","DECAY_DATE":null,"SEMIMAJOR_AXIS":"6916.058","OBJECT_TYPE":"PAYLOAD","ECCENTRICITY":"0.00014020","ARG_OF_PERICENTER":"76.9715","MEAN_ELEMENT_THEORY":"SGP4","TLE_LINE1":"1 44942U 20001AE  22259.30747465  .00010599  00000-0  67203-3 0  9997","PERIAPSIS":"536.954","RA_OF_ASC_NODE":"268.1571","TIME_SYSTEM":"UTC","EPOCH":"2022-09-16T07:22:45.809760","FILE":"3575604","MEAN_MOTION":"15.09436359","COUNTRY_CODE":"US","INCLINATION":"53.0537","BSTAR":"0.00067203000000","EPHEMERIS_TYPE":"0","REF_FRAME":"TEME","LAUNCH_DATE":"2020-01-07","GP_ID":"212715742","SITE":"AFETR","TLE_LINE2":"2 44942  53.0537 268.1571 0001402  76.9715 283.1432 15.09436359148674","OBJECT_NAME":"STARLINK-1096","CENTER_NAME":"EARTH","CLASSIFICATION_TYPE":"U","MEAN_MOTION_DOT":"0.00010599","APOAPSIS":"538.893"},{"TLE_LINE1":"1 44943U 20001AF  22259.75327004  .00000758  00000-0  69764-4 0  9991","RA_OF_ASC_NODE":"267.5962","TIME_SYSTEM":"UTC","PERIAPSIS":"546.232","ARG_OF_PERICENTER":"79.3472","ECCENTRICITY":"0.00014410","SEMIMAJOR_AXIS":"6925.365","DECAY_DATE":null,"OBJECT_TYPE":"PAYLOAD","MEAN_ELEMENT_THEORY":"SGP4","ELEMENT_SET_NO":"999","RCS_SIZE":"LARGE","PERIOD":"95.592","MEAN_ANOMALY":"280.7679","NORAD_CAT_ID":"44943","OBJECT_ID":"2020-001AF","MEAN_MOTION_DDOT":"0.0000000000000","REV_AT_EPOCH":"14871","MEAN_MOTION_DOT":"0.00000758","APOAPSIS":"548.228","TLE_LINE2":"2 44943  53.0554 267.5962 0001441  79.3472 280.7679 15.06394696148716","SITE":"AFETR","OBJECT_NAME":"STARLINK-1100","CENTER_NAME":"EARTH","CLASSIFICATION_TYPE":"U","BSTAR":"0.00006976400000","EPHEMERIS_TYPE":"0","INCLINATION":"53.0554","GP_ID":"212744795","REF_FRAME":"TEME","LAUNCH_DATE":"2020-01-07","FILE":"3575787","MEAN_MOTION":"15.06394696","EPOCH":"2022-09-16T18:04:42.531456","COUNTRY_CODE":"US"}];
